ORBCOMM FM20            
1 25416U 98046D   24291.58146890  .00003998  00000+0  14093-2 0  9991
2 25416  44.9936 249.3072 0001421 320.8766  39.1978 14.36058094369377
ORBCOMM FM16            
1 25417U 98046E   24291.55589631  .00005032  00000+0  17164-2 0  9996
2 25417  44.9932 243.8365 0002267 160.3702 199.7233 14.37343688369323
ORBCOMM FM15            
1 25418U 98046F   24291.26726670  .00004003  00000+0  13844-2 0  9999
2 25418  44.9961 249.6655 0001805 166.1403 193.9495 14.37018458369286
ORBCOMM FM14            
1 25419U 98046G   24291.26889347  .00004257  00000+0  14616-2 0  9990
2 25419  44.9953 248.5055 0000655 135.3028 224.7873 14.37274554369243
ORBCOMM FM13            
1 25420U 98046H   24291.40379718  .00004145  00000+0  14507-2 0  9999
2 25420  44.9968 253.7398 0002836 135.0477 225.0601 14.36352391368312
ORBCOMM FM21            
1 25475U 98053A   24291.50642570  .00003754  00000+0  13232-2 0  9996
2 25475  45.0090 337.8581 0001425 265.9152  94.1533 14.36182298362347
ORBCOMM FM22            
1 25476U 98053B   24291.55600972  .00004171  00000+0  14441-2 0  9999
2 25476  45.0082 334.1631 0000453  22.5665 337.5203 14.36892072362358
ORBCOMM FM23            
1 25477U 98053C   24291.52920436  .00003655  00000+0  12881-2 0  9999
2 25477  45.0090 340.1172 0000549 289.9155  70.1634 14.36245403362497
