<?xml version="1.0" encoding="UTF-8"?>
<ndm xmlns:xsi="http://www.w3.org/2001/XMLSchema-instance" xsi:noNamespaceSchemaLocation="https://sanaregistry.org/r/ndmxml_unqualified/ndmxml-2.0.0-master-2.0.xsd">
<omm id="CCSDS_OMM_VERS" version="2.0">
<header><CREATION_DATE/><ORIGINATOR/></header><body><segment><metadata><OBJECT_NAME>ORBCOMM FM20</OBJECT_NAME><OBJECT_ID>1998-046D</OBJECT_ID><CENTER_NAME>EARTH</CENTER_NAME><REF_FRAME>TEME</REF_FRAME><TIME_SYSTEM>UTC</TIME_SYSTEM><MEAN_ELEMENT_THEORY>SGP4</MEAN_ELEMENT_THEORY></metadata><data><meanElements><EPOCH>2024-10-17T13:57:18.912960</EPOCH><MEAN_MOTION>14.36058094</MEAN_MOTION><ECCENTRICITY>.0001421</ECCENTRICITY><INCLINATION>44.9936</INCLINATION><RA_OF_ASC_NODE>249.3072</RA_OF_ASC_NODE><ARG_OF_PERICENTER>320.8766</ARG_OF_PERICENTER><MEAN_ANOMALY>39.1978</MEAN_ANOMALY></meanElements><tleParameters><EPHEMERIS_TYPE>0</EPHEMERIS_TYPE><CLASSIFICATION_TYPE>U</CLASSIFICATION_TYPE><NORAD_CAT_ID>25416</NORAD_CAT_ID><ELEMENT_SET_NO>999</ELEMENT_SET_NO><REV_AT_EPOCH>36937</REV_AT_EPOCH><BSTAR>.14093E-2</BSTAR><MEAN_MOTION_DOT>.3998E-4</MEAN_MOTION_DOT><MEAN_MOTION_DDOT>0</MEAN_MOTION_DDOT></tleParameters></data></segment></body></omm>
<omm id="CCSDS_OMM_VERS" version="2.0">
<header><CREATION_DATE/><ORIGINATOR/></header><body><segment><metadata><OBJECT_NAME>ORBCOMM FM16</OBJECT_NAME><OBJECT_ID>1998-046E</OBJECT_ID><CENTER_NAME>EARTH</CENTER_NAME><REF_FRAME>TEME</REF_FRAME><TIME_SYSTEM>UTC</TIME_SYSTEM><MEAN_ELEMENT_THEORY>SGP4</MEAN_ELEMENT_THEORY></metadata><data><meanElements><EPOCH>2024-10-17T13:20:29.441184</EPOCH><MEAN_MOTION>14.37343688</MEAN_MOTION><ECCENTRICITY>.0002267</ECCENTRICITY><INCLINATION>44.9932</INCLINATION><RA_OF_ASC_NODE>243.8365</RA_OF_ASC_NODE><ARG_OF_PERICENTER>160.3702</ARG_OF_PERICENTER><MEAN_ANOMALY>199.7233</MEAN_ANOMALY></meanElements><tleParameters><EPHEMERIS_TYPE>0</EPHEMERIS_TYPE><CLASSIFICATION_TYPE>U</CLASSIFICATION_TYPE><NORAD_CAT_ID>25417</NORAD_CAT_ID><ELEMENT_SET_NO>999</ELEMENT_SET_NO><REV_AT_EPOCH>36932</REV_AT_EPOCH><BSTAR>.17164E-2</BSTAR><MEAN_MOTION_DOT>.5032E-4</MEAN_MOTION_DOT><MEAN_MOTION_DDOT>0</MEAN_MOTION_DDOT></tleParameters></data></segment></body></omm>
<omm id="CCSDS_OMM_VERS" version="2.0">
<header><CREATION_DATE/><ORIGINATOR/></header><body><segment><metadata><OBJECT_NAME>ORBCOMM FM15</OBJECT_NAME><OBJECT_ID>1998-046F</OBJECT_ID><CENTER_NAME>EARTH</CENTER_NAME><REF_FRAME>TEME</REF_FRAME><TIME_SYSTEM>UTC</TIME_SYSTEM><MEAN_ELEMENT_THEORY>SGP4</MEAN_ELEMENT_THEORY></metadata><data><meanElements><EPOCH>2024-10-17T06:24:51.842880</EPOCH><MEAN_MOTION>14.37018458</MEAN_MOTION><ECCENTRICITY>.0001805</ECCENTRICITY><INCLINATION>44.9961</INCLINATION><RA_OF_ASC_NODE>249.6655</RA_OF_ASC_NODE><ARG_OF_PERICENTER>166.1403</ARG_OF_PERICENTER><MEAN_ANOMALY>193.9495</MEAN_ANOMALY></meanElements><tleParameters><EPHEMERIS_TYPE>0</EPHEMERIS_TYPE><CLASSIFICATION_TYPE>U</CLASSIFICATION_TYPE><NORAD_CAT_ID>25418</NORAD_CAT_ID><ELEMENT_SET_NO>999</ELEMENT_SET_NO><REV_AT_EPOCH>36928</REV_AT_EPOCH><BSTAR>.13844E-2</BSTAR><MEAN_MOTION_DOT>.4003E-4</MEAN_MOTION_DOT><MEAN_MOTION_DDOT>0</MEAN_MOTION_DDOT></tleParameters></data></segment></body></omm>
<omm id="CCSDS_OMM_VERS" version="2.0">
<header><CREATION_DATE/><ORIGINATOR/></header><body><segment><metadata><OBJECT_NAME>ORBCOMM FM14</OBJECT_NAME><OBJECT_ID>1998-046G</OBJECT_ID><CENTER_NAME>EARTH</CENTER_NAME><REF_FRAME>TEME</REF_FRAME><TIME_SYSTEM>UTC</TIME_SYSTEM><MEAN_ELEMENT_THEORY>SGP4</MEAN_ELEMENT_THEORY></metadata><data><meanElements><EPOCH>2024-10-17T06:27:12.395808</EPOCH><MEAN_MOTION>14.37274554</MEAN_MOTION><ECCENTRICITY>.0000655</ECCENTRICITY><INCLINATION>44.9953</INCLINATION><RA_OF_ASC_NODE>248.5055</RA_OF_ASC_NODE><ARG_OF_PERICENTER>135.3028</ARG_OF_PERICENTER><MEAN_ANOMALY>224.7873</MEAN_ANOMALY></meanElements><tleParameters><EPHEMERIS_TYPE>0</EPHEMERIS_TYPE><CLASSIFICATION_TYPE>U</CLASSIFICATION_TYPE><NORAD_CAT_ID>25419</NORAD_CAT_ID><ELEMENT_SET_NO>999</ELEMENT_SET_NO><REV_AT_EPOCH>36924</REV_AT_EPOCH><BSTAR>.14616E-2</BSTAR><MEAN_MOTION_DOT>.4257E-4</MEAN_MOTION_DOT><MEAN_MOTION_DDOT>0</MEAN_MOTION_DDOT></tleParameters></data></segment></body></omm>
<omm id="CCSDS_OMM_VERS" version="2.0">
<header><CREATION_DATE/><ORIGINATOR/></header><body><segment><metadata><OBJECT_NAME>ORBCOMM FM13</OBJECT_NAME><OBJECT_ID>1998-046H</OBJECT_ID><CENTER_NAME>EARTH</CENTER_NAME><REF_FRAME>TEME</REF_FRAME><TIME_SYSTEM>UTC</TIME_SYSTEM><MEAN_ELEMENT_THEORY>SGP4</MEAN_ELEMENT_THEORY></metadata><data><meanElements><EPOCH>2024-10-17T09:41:28.076352</EPOCH><MEAN_MOTION>14.36352391</MEAN_MOTION><ECCENTRICITY>.0002836</ECCENTRICITY><INCLINATION>44.9968</INCLINATION><RA_OF_ASC_NODE>253.7398</RA_OF_ASC_NODE><ARG_OF_PERICENTER>135.0477</ARG_OF_PERICENTER><MEAN_ANOMALY>225.0601</MEAN_ANOMALY></meanElements><tleParameters><EPHEMERIS_TYPE>0</EPHEMERIS_TYPE><CLASSIFICATION_TYPE>U</CLASSIFICATION_TYPE><NORAD_CAT_ID>25420</NORAD_CAT_ID><ELEMENT_SET_NO>999</ELEMENT_SET_NO><REV_AT_EPOCH>36831</REV_AT_EPOCH><BSTAR>.14507E-2</BSTAR><MEAN_MOTION_DOT>.4145E-4</MEAN_MOTION_DOT><MEAN_MOTION_DDOT>0</MEAN_MOTION_DDOT></tleParameters></data></segment></body></omm>
<omm id="CCSDS_OMM_VERS" version="2.0">
<header><CREATION_DATE/><ORIGINATOR/></header><body><segment><metadata><OBJECT_NAME>ORBCOMM FM21</OBJECT_NAME><OBJECT_ID>1998-053A</OBJECT_ID><CENTER_NAME>EARTH</CENTER_NAME><REF_FRAME>TEME</REF_FRAME><TIME_SYSTEM>UTC</TIME_SYSTEM><MEAN_ELEMENT_THEORY>SGP4</MEAN_ELEMENT_THEORY></metadata><data><meanElements><EPOCH>2024-10-17T12:09:15.180480</EPOCH><MEAN_MOTION>14.36182298</MEAN_MOTION><ECCENTRICITY>.0001425</ECCENTRICITY><INCLINATION>45.0090</INCLINATION><RA_OF_ASC_NODE>337.8581</RA_OF_ASC_NODE><ARG_OF_PERICENTER>265.9152</ARG_OF_PERICENTER><MEAN_ANOMALY>94.1533</MEAN_ANOMALY></meanElements><tleParameters><EPHEMERIS_TYPE>0</EPHEMERIS_TYPE><CLASSIFICATION_TYPE>U</CLASSIFICATION_TYPE><NORAD_CAT_ID>25475</NORAD_CAT_ID><ELEMENT_SET_NO>999</ELEMENT_SET_NO><REV_AT_EPOCH>36234</REV_AT_EPOCH><BSTAR>.13232E-2</BSTAR><MEAN_MOTION_DOT>.3754E-4</MEAN_MOTION_DOT><MEAN_MOTION_DDOT>0</MEAN_MOTION_DDOT></tleParameters></data></segment></body></omm>
<omm id="CCSDS_OMM_VERS" version="2.0">
<header><CREATION_DATE/><ORIGINATOR/></header><body><segment><metadata><OBJECT_NAME>ORBCOMM FM22</OBJECT_NAME><OBJECT_ID>1998-053B</OBJECT_ID><CENTER_NAME>EARTH</CENTER_NAME><REF_FRAME>TEME</REF_FRAME><TIME_SYSTEM>UTC</TIME_SYSTEM><MEAN_ELEMENT_THEORY>SGP4</MEAN_ELEMENT_THEORY></metadata><data><meanElements><EPOCH>2024-10-17T13:20:39.239808</EPOCH><MEAN_MOTION>14.36892072</MEAN_MOTION><ECCENTRICITY>.0000453</ECCENTRICITY><INCLINATION>45.0082</INCLINATION><RA_OF_ASC_NODE>334.1631</RA_OF_ASC_NODE><ARG_OF_PERICENTER>22.5665</ARG_OF_PERICENTER><MEAN_ANOMALY>337.5203</MEAN_ANOMALY></meanElements><tleParameters><EPHEMERIS_TYPE>0</EPHEMERIS_TYPE><CLASSIFICATION_TYPE>U</CLASSIFICATION_TYPE><NORAD_CAT_ID>25476</NORAD_CAT_ID><ELEMENT_SET_NO>999</ELEMENT_SET_NO><REV_AT_EPOCH>36235</REV_AT_EPOCH><BSTAR>.14441E-2</BSTAR><MEAN_MOTION_DOT>.4171E-4</MEAN_MOTION_DOT><MEAN_MOTION_DDOT>0</MEAN_MOTION_DDOT></tleParameters></data></segment></body></omm>
<omm id="CCSDS_OMM_VERS" version="2.0">
<header><CREATION_DATE/><ORIGINATOR/></header><body><segment><metadata><OBJECT_NAME>ORBCOMM FM23</OBJECT_NAME><OBJECT_ID>1998-053C</OBJECT_ID><CENTER_NAME>EARTH</CENTER_NAME><REF_FRAME>TEME</REF_FRAME><TIME_SYSTEM>UTC</TIME_SYSTEM><MEAN_ELEMENT_THEORY>SGP4</MEAN_ELEMENT_THEORY></metadata><data><meanElements><EPOCH>2024-10-17T12:42:03.256704</EPOCH><MEAN_MOTION>14.36245403</MEAN_MOTION><ECCENTRICITY>.0000549</ECCENTRICITY><INCLINATION>45.0090</INCLINATION><RA_OF_ASC_NODE>340.1172</RA_OF_ASC_NODE><ARG_OF_PERICENTER>289.9155</ARG_OF_PERICENTER><MEAN_ANOMALY>70.1634</MEAN_ANOMALY></meanElements><tleParameters><EPHEMERIS_TYPE>0</EPHEMERIS_TYPE><CLASSIFICATION_TYPE>U</CLASSIFICATION_TYPE><NORAD_CAT_ID>25477</NORAD_CAT_ID><ELEMENT_SET_NO>999</ELEMENT_SET_NO><REV_AT_EPOCH>36249</REV_AT_EPOCH><BSTAR>.12881E-2</BSTAR><MEAN_MOTION_DOT>.3655E-4</MEAN_MOTION_DOT><MEAN_MOTION_DDOT>0</MEAN_MOTION_DDOT></tleParameters></data></segment></body></omm>

</ndm>
